{
"type": "FeatureCollection",
"name": "transformed_buildings",
"crs": { "type": "name", "properties": { "name": "urn:ogc:def:crs:EPSG::3415" } },
"features": [
{ "type": "Feature", "properties": { "floors": 6, "building_id": 0 }, "geometry": { "type": "Polygon", "coordinates": [ [ [ 239.105680627690163, 204.288682003039867 ], [ 240.315524038684089, 188.716649337904528 ], [ 286.596495803270955, 187.788805950898677 ], [ 287.986377780325711, 202.048089348012581 ], [ 239.105680627690163, 204.288682003039867 ] ] ] } },
{ "type": "Feature", "properties": { "floors": 6, "building_id": 1 }, "geometry": { "type": "Polygon", "coordinates": [ [ [ 298.405028224457055, 200.039640226168558 ], [ 296.367168073251378, 186.432794405613095 ], [ 338.088760153506882, 186.181140394881368 ], [ 338.159154045104515, 197.854265153640881 ], [ 298.405028224457055, 200.039640226168558 ] ] ] } },
{ "type": "Feature", "properties": { "floors": 6, "building_id": 2 }, "geometry": { "type": "Polygon", "coordinates": [ [ [ 300.233080083213281, 286.931424506241456 ], [ 300.154833485197742, 273.961357390740886 ], [ 338.620623845490627, 274.377872728044167 ], [ 338.698838845535647, 287.347939410479739 ], [ 300.233080083213281, 286.931424506241456 ] ] ] } },
{ "type": "Feature", "properties": { "floors": 6, "building_id": 3 }, "geometry": { "type": "Polygon", "coordinates": [ [ [ 299.409040561236907, 258.40119585278444 ], [ 299.350355112866964, 248.673629219410941 ], [ 336.504590841766912, 247.800996834877878 ], [ 335.903534735436551, 256.235486768884584 ], [ 299.409040561236907, 258.40119585278444 ] ] ] } },
{ "type": "Feature", "properties": { "floors": 6, "building_id": 4 }, "geometry": { "type": "Polygon", "coordinates": [ [ [ 348.902993537019938, 224.531081855995581 ], [ 348.05227976833703, 214.695131159154698 ], [ 384.460349834815133, 215.262926271883771 ], [ 382.932167264109012, 224.325930987717584 ], [ 348.902993537019938, 224.531081855995581 ] ] ] } },
{ "type": "Feature", "properties": { "floors": 6, "building_id": 5 }, "geometry": { "type": "Polygon", "coordinates": [ [ [ 181.729414578469004, 158.197650582995266 ], [ 157.137607106007636, 123.544741116231307 ], [ 205.907182077004109, 124.304748645285144 ], [ 212.471368629834615, 158.011989402584732 ], [ 181.729414578469004, 158.197650582995266 ] ] ] } }
]
}
