{
"type": "FeatureCollection", 
"name": "transformed_shelter_available",
"crs": { "type": "name", "properties": { "name": "urn:ogc:def:crs:EPSG::3415" } },
"features": [
{ "type": "Feature", "properties": { }, "geometry": { "type": "Polygon", "coordinates": [ [ [ 113.819308431702666, 449.863504468463361 ], [ 80.076496939640492, 348.209017127752304 ], [ 103.841610938310623, 349.419664228800684 ], [ 136.400301497080363, 447.528105746256188 ], [ 113.819308431702666, 449.863504468463361 ] ] ] } },
{ "type": "Feature", "properties": { }, "geometry": { "type": "Polygon", "coordinates": [ [ [ 297.242586005479097, 398.225993250962347 ], [ 274.053472993837204, 411.785132130142301 ], [ 222.417455645627342, 366.231779668014497 ], [ 230.177992046345025, 336.702547883964144 ], [ 297.242586005479097, 398.225993250962347 ] ] ] } },
{ "type": "Feature", "properties": { }, "geometry": { "type": "Polygon", "coordinates": [ [ [ 332.900370907329489, 391.771615007077344 ], [ 375.151184119051322, 339.245002669980749 ], [ 396.528619110293221, 349.314752767793834 ], [ 364.954353244800586, 416.623870794661343 ], [ 332.900370907329489, 391.771615007077344 ] ] ] } },
{ "type": "Feature", "properties": { }, "geometry": { "type": "Polygon", "coordinates": [ [ [ 180.018053602310829, 212.557040719198994 ], [ 215.758428857196122, 139.344038428156637 ], [ 256.13730553543428, 159.480453034397215 ], [ 207.333094471599907, 226.178605272667482 ], [ 180.018053602310829, 212.557040719198994 ] ] ] } },
{ "type": "Feature", "properties": { }, "geometry": { "type": "Polygon", "coordinates": [ [ [ 369.578474598296452, 223.745614329935052 ], [ 388.631501594500151, 191.867097086273134 ], [ 463.458577560842969, 222.680844881222583 ], [ 446.184262944385409, 257.515328947454691 ], [ 369.578474598296452, 223.745614329935052 ] ] ] } },
{ "type": "Feature", "properties": { }, "geometry": { "type": "Polygon", "coordinates": [ [ [ 240.288834786799271, 113.972580315428786 ], [ 288.844091524661053, 52.683187707094476 ], [ 305.901798232982401, 69.137167474254966 ], [ 261.204191858705599, 129.335690106963739 ], [ 240.288834786799271, 113.972580315428786 ] ] ] } },
{ "type": "Feature", "properties": { }, "geometry": { "type": "Polygon", "coordinates": [ [ [ 293.491923645429779, 299.174030304071493 ], [ 326.569688821793534, 236.73680699581746 ], [ 333.797107630700339, 241.240599702810869 ], [ 302.075503719970584, 303.679469189373776 ], [ 293.491923645429779, 299.174030304071493 ] ] ] } },
{ "type": "Feature", "properties": { }, "geometry": { "type": "Polygon", "coordinates": [ [ [ 349.86451177240815, 185.26220858132001 ], [ 386.091541333182249, 135.414215154130943 ], [ 396.469473684439436, 151.159138608723879 ], [ 361.605885277676862, 195.16544775001239 ], [ 349.86451177240815, 185.26220858132001 ] ] ] } },
{ "type": "Feature", "properties": { }, "geometry": { "type": "Polygon", "coordinates": [ [ [ 308.422757560911123, 86.535233163507655 ], [ 323.6730993114179, 70.779150509508327 ], [ 388.339024019602221, 123.232172860414721 ], [ 372.45718723081518, 136.463376850937493 ], [ 308.422757560911123, 86.535233163507655 ] ] ] } },
{ "type": "Feature", "properties": { }, "geometry": { "type": "Polygon", "coordinates": [ [ [ 125.51716594339814, 191.384329079883173 ], [ 190.172981704759877, 102.018963266862556 ], [ 219.630818098725285, 118.226073675788939 ], [ 152.432494726555888, 208.59878593031317 ], [ 125.51716594339814, 191.384329079883173 ] ] ] } },
{ "type": "Feature", "properties": { }, "geometry": { "type": "Polygon", "coordinates": [ [ [ 153.071449775947258, 280.098996503744274 ], [ 115.654890567762777, 264.100522133521736 ], [ 135.560910771426279, 229.940803760895506 ], [ 179.111042811302468, 228.474997991463169 ], [ 153.071449775947258, 280.098996503744274 ] ] ] } },
{ "type": "Feature", "properties": { }, "geometry": { "type": "Polygon", "coordinates": [ [ [ 449.891294056084007, 55.299679266056046 ], [ 502.459395955433138, 27.798188642831519 ], [ 480.10491940373322, 66.583210574346595 ], [ 449.891294056084007, 55.299679266056046 ] ] ] } },
{ "type": "Feature", "properties": { }, "geometry": { "type": "Polygon", "coordinates": [ [ [ 305.905979908420704, 306.036995779024437 ], [ 311.862495057750493, 299.184000558103435 ], [ 342.155002555518877, 237.478095660102554 ], [ 354.043765661364887, 243.406967413029633 ], [ 317.082115237484686, 311.01867776538711 ], [ 305.905979908420704, 306.036995779024437 ] ] ] } },
{ "type": "Feature", "properties": { }, "geometry": { "type": "Polygon", "coordinates": [ [ [ 269.606951003836002, 174.335297873010859 ], [ 277.956442600057926, 158.754590768017806 ], [ 347.991572142345831, 188.561648204457015 ], [ 336.701350397896022, 204.625865785870701 ], [ 269.606951003836002, 174.335297873010859 ] ] ] } },
{ "type": "Feature", "properties": { }, "geometry": { "type": "Polygon", "coordinates": [ [ [ 424.937735274026636, 147.767658091033809 ], [ 441.405301629274618, 112.247123761451803 ], [ 459.426790823985357, 121.875273789046332 ], [ 444.892144431069028, 156.757799355546013 ], [ 424.937735274026636, 147.767658091033809 ] ] ] } },
{ "type": "Feature", "properties": { }, "geometry": { "type": "Polygon", "coordinates": [ [ [ 235.834923892049119, 535.76585867931135 ], [ 276.794408800138626, 529.141375586390495 ], [ 313.697014590259641, 545.874606807366945 ], [ 298.232450920622796, 565.213060664129443 ], [ 235.834923892049119, 535.76585867931135 ] ] ] } },
{ "type": "Feature", "properties": { }, "geometry": { "type": "Polygon", "coordinates": [ [ [ 305.080955468059983, 507.143917770241387 ], [ 320.328156974108424, 473.325879389303736 ], [ 346.391769594454672, 475.517977013252676 ], [ 327.515734590706415, 516.170857874327339 ], [ 305.080955468059983, 507.143917770241387 ] ] ] } }
]
}
