{
"type": "FeatureCollection",
"name": "transformed_boundary",
"crs": { "type": "name", "properties": { "name": "urn:ogc:def:crs:EPSG::3415" } },
"features": [
{ "type": "Feature", "properties": { }, "geometry": { "type": "Polygon", "coordinates": [ [ [ 171.150685974687804, 502.371614825213328 ], [ 105.09561226965161, 359.44766954286024 ], [ 0.0, 229.080988947534934 ], [ 239.176316357625183, 0.0 ], [ 389.869432893057819, 124.258446485502645 ], [ 404.178363836370409, 443.247383213834837 ], [ 295.516309761616867, 477.625613246578723 ], [ 171.150685974687804, 502.371614825213328 ] ] ] } }
]
}
