{
  "type": "FeatureCollection",
  "features": [
    {
      "type": "Feature",
      "properties": {
        "floors": 6,
        "building_id": 0
      },
      "geometry": {
        "coordinates": [
          [
            [
              114.19698757850898,
              22.69300185480718
            ],
            [
              114.19709210308747,
              22.69281587707745
            ],
            [
              114.19762965806297,
              22.69308451149419
            ],
            [
              114.19765952222889,
              22.693291152994675
            ],
            [
              114.19721155974895,
              22.693318705171777
            ],
            [
              114.19721155974895,
              22.693153392029373
            ],
            [
              114.1973160843275,
              22.693160280081088
            ],
            [
              114.19698757850898,
              22.69300185480718
            ]
          ]
        ],
        "type": "Polygon"
      }
    },
    {
      "type": "Feature",
      "properties": {
        "floors": 7,
        "building_id": 1
      },
      "geometry": {
        "coordinates": [
          [
            [
              114.19801789221327,
              22.693656218883987
            ],
            [
              114.19818214512372,
              22.693325593215206
            ],
            [
              114.19828666970221,
              22.69340824970692
            ],
            [
              114.19822694137036,
              22.693587338602683
            ],
            [
              114.19848078677626,
              22.69366310691042
            ],
            [
              114.19845092261033,
              22.693814643401282
            ],
            [
              114.19801789221327,
              22.693656218883987
            ]
          ]
        ],
        "type": "Polygon"
      }
    },
    {
      "type": "Feature",
      "properties": {
        "floors": 7,
        "building_id": 2
      },
      "geometry": {
        "coordinates": [
          [
            [
              114.19817467908223,
              22.693318705171777
            ],
            [
              114.19825680553629,
              22.693208496432334
            ],
            [
              114.19880182655328,
              22.69345646597091
            ],
            [
              114.1989138171732,
              22.693256712766612
            ],
            [
              114.19871223405772,
              22.69317405618345
            ],
            [
              114.1986450396866,
              22.693015630925473
            ],
            [
              114.19845092261033,
              22.693139615924892
            ],
            [
              114.19828666970221,
              22.693112063712817
            ],
            [
              114.19842105844663,
              22.692877869682064
            ],
            [
              114.19879436051178,
              22.692877869682064
            ],
            [
              114.19880182655328,
              22.693077623438683
            ],
            [
              114.19895114738068,
              22.69317405618345
            ],
            [
              114.19910793424958,
              22.693222272529866
            ],
            [
              114.19886155488513,
              22.693628666775822
            ],
            [
              114.19817467908223,
              22.693318705171777
            ]
          ]
        ],
        "type": "Polygon"
      }
    },
    {
      "type": "Feature",
      "properties": {
        "floors": 7,
        "building_id": 3
      },
      "geometry": {
        "coordinates": [
          [
            [
              114.19763108759588,
              22.692468828808927
            ],
            [
              114.19769828196695,
              22.692365507477575
            ],
            [
              114.19821343882023,
              22.692585926223927
            ],
            [
              114.19812384632252,
              22.692689247389097
            ],
            [
              114.19763108759588,
              22.692468828808927
            ]
          ]
        ],
        "type": "Polygon"
      }
    },
    {
      "type": "Feature",
      "properties": {
        "floors": 7,
        "building_id": 4
      },
      "geometry": {
        "coordinates": [
          [
            [
              114.19766300150536,
              22.693287558228263
            ],
            [
              114.19765863728367,
              22.693158714713434
            ],
            [
              114.19774155749445,
              22.69315468835157
            ],
            [
              114.197894305251,
              22.69286881636272
            ],
            [
              114.19803396034246,
              22.69292518553442
            ],
            [
              114.1978593914775,
              22.69326742643726
            ],
            [
              114.19766300150536,
              22.693287558228263
            ]
          ]
        ],
        "type": "Polygon"
      }
    },
    {
      "type": "Feature",
      "properties": {
        "floors": 7,
        "building_id": 5
      },
      "geometry": {
        "coordinates": [
          [
            [
              114.19756856007336,
              22.69203386633869
            ],
            [
              114.19769243066872,
              22.691812024655064
            ],
            [
              114.19822434557682,
              22.692107813487453
            ],
            [
              114.19834092966641,
              22.691973364097635
            ],
            [
              114.19778715524114,
              22.691617072574545
            ],
            [
              114.19788187981362,
              22.691435565217034
            ],
            [
              114.19858867085725,
              22.691986809041808
            ],
            [
              114.19823891858829,
              22.69226915258173
            ],
            [
              114.19756856007336,
              22.69203386633869
            ]
          ]
        ],
        "type": "Polygon"
      }
    },
    {
      "type": "Feature",
      "properties": {
        "floors": 7,
        "building_id": 6
      },
      "geometry": {
        "coordinates": [
          [
            [
              114.19907686673304,
              22.692403601681335
            ],
            [
              114.19918616431693,
              22.692168315670216
            ],
            [
              114.19953591658589,
              22.69230948732539
            ],
            [
              114.19944847851701,
              22.69253132820465
            ],
            [
              114.1993318944273,
              22.692497715972678
            ],
            [
              114.1993901864733,
              22.692383434325336
            ],
            [
              114.19918616431693,
              22.69232293223763
            ],
            [
              114.19915701829399,
              22.692390156777023
            ],
            [
              114.19907686673304,
              22.692403601681335
            ]
          ]
        ],
        "type": "Polygon"
      }
    },
    {
      "type": "Feature",
      "properties": {
        "floors": 7,
        "building_id": 7
      },
      "geometry": {
        "coordinates": [
          [
            [
              114.19944847851701,
              22.69212125841952
            ],
            [
              114.1996233546526,
              22.691751522315002
            ],
            [
              114.19983466331462,
              22.69183891457486
            ],
            [
              114.19968164669632,
              22.692188483057834
            ],
            [
              114.19944847851701,
              22.69212125841952
            ]
          ]
        ],
        "type": "Polygon"
      }
    },
    {
      "type": "Feature",
      "properties": {
        "floors": 6,
        "building_id": 8
      },
      "geometry": {
        "coordinates": [
          [
            [
              114.19918616431693,
              22.691637240044358
            ],
            [
              114.1993901864733,
              22.691301115167562
            ],
            [
              114.19975451175367,
              22.6914422877162
            ],
            [
              114.19969621970785,
              22.691549847655907
            ],
            [
              114.19943390550554,
              22.691435565217034
            ],
            [
              114.19941204599053,
              22.69151623518316
            ],
            [
              114.19966707368485,
              22.691617072574545
            ],
            [
              114.19960878164113,
              22.691744799831014
            ],
            [
              114.19918616431693,
              22.691637240044358
            ]
          ]
        ],
        "type": "Polygon"
      }
    },
    {
      "type": "Feature",
      "properties": {
        "floors": 7,
        "building_id": 9
      },
      "geometry": {
        "coordinates": [
          [
            [
              114.1996927630521,
              22.69155350524059
            ],
            [
              114.19975193608622,
              22.691444319709262
            ],
            [
              114.19989000649952,
              22.69149891248547
            ],
            [
              114.19996890387881,
              22.691353331700398
            ],
            [
              114.19975193608622,
              22.69128054124951
            ],
            [
              114.19982097129287,
              22.69118955313121
            ],
            [
              114.2001069742937,
              22.6912623436304
            ],
            [
              114.1999787660514,
              22.691644493116556
            ],
            [
              114.1996927630521,
              22.69155350524059
            ]
          ]
        ],
        "type": "Polygon"
      }
    },
    {
      "type": "Feature",
      "properties": {
        "floors": 13,
        "building_id": 10
      },
      "geometry": {
        "coordinates": [
          [
            [
              114.19654280984139,
              22.6948985462528
            ],
            [
              114.19653638201305,
              22.694702851585134
            ],
            [
              114.19682563428285,
              22.69472360709291
            ],
            [
              114.1971663091793,
              22.694907441457616
            ],
            [
              114.19711167263927,
              22.69504383453649
            ],
            [
              114.19681277862605,
              22.69491040652605
            ],
            [
              114.19654280984139,
              22.6948985462528
            ]
          ]
        ],
        "type": "Polygon"
      }
    },
    {
      "type": "Feature",
      "properties": {
        "floors": 7,
        "building_id": 11
      },
      "geometry": {
        "coordinates": [
          [
            [
              114.19666493857795,
              22.694717676948812
            ],
            [
              114.19666172466287,
              22.694338147140883
            ],
            [
              114.19629855237008,
              22.694323321736135
            ],
            [
              114.19629533845489,
              22.69417803268749
            ],
            [
              114.19679992297137,
              22.69418989302399
            ],
            [
              114.19683848993947,
              22.69472360709291
            ],
            [
              114.19666493857795,
              22.694717676948812
            ]
          ]
        ],
        "type": "Polygon"
      },
      "id": 12
    },
    {
      "type": "Feature",
      "properties": {
        "floors": 12,
        "building_id": 12
      },
      "geometry": {
        "coordinates": [
          [
            [
              114.19738806925238,
              22.6953759214654
            ],
            [
              114.1974105666506,
              22.695206913040053
            ],
            [
              114.19760982932542,
              22.69520394797803
            ],
            [
              114.19803727990364,
              22.69537295640704
            ],
            [
              114.19796657379192,
              22.695512314077874
            ],
            [
              114.19768053543731,
              22.695387781698187
            ],
            [
              114.19738806925238,
              22.6953759214654
            ]
          ]
        ],
        "type": "Polygon"
      },
      "id": 12
    },
    {
      "type": "Feature",
      "properties": {
        "floors": 7,
        "building_id": 13
      },
      "geometry": {
        "coordinates": [
          [
            [
              114.19760982932542,
              22.695198017853826
            ],
            [
              114.19777373894539,
              22.694800698953898
            ],
            [
              114.19742663622253,
              22.694613899371205
            ],
            [
              114.19748127276245,
              22.69444785508429
            ],
            [
              114.19802763816017,
              22.69473546738216
            ],
            [
              114.19827832346186,
              22.69471174680352
            ],
            [
              114.19824618432006,
              22.694907441457616
            ],
            [
              114.19796657379192,
              22.694907441457616
            ],
            [
              114.19777695286052,
              22.695272144386422
            ],
            [
              114.19760982932542,
              22.695198017853826
            ]
          ]
        ],
        "type": "Polygon"
      }
    }
  ]
}