{
  "type": "FeatureCollection",
  "features": [
    {
      "type": "Feature",
      "properties": {
        "floors": 6,
        "building_id": 0
      },
      "geometry": {
        "coordinates": [
          [
            [
              113.03554337817218,
              28.230487785434434
            ],
            [
              113.0355565733642,
              28.23034827756166
            ],
            [
              113.03602500267232,
              28.230342464729546
            ],
            [
              113.03603819786434,
              28.23047034696083
            ],
            [
              113.03554337817218,
              28.230487785434434
            ]
          ]
        ],
        "type": "Polygon"
      }
    },
    {
      "type": "Feature",
      "properties": {
        "floors": 6,
        "building_id": 1
      },
      "geometry": {
        "coordinates": [
          [
            [
              113.03614375939844,
              28.23045290848357
            ],
            [
              113.03612396661043,
              28.230330839065317
            ],
            [
              113.03654621274649,
              28.230330839065317
            ],
            [
              113.03654621274649,
              28.2304354700034
            ],
            [
              113.03614375939844,
              28.23045290848357
            ]
          ]
        ],
        "type": "Polygon"
      }
    },
    {
      "type": "Feature",
      "properties": {
        "floors": 6,
        "building_id": 2
      },
      "geometry": {
        "coordinates": [
          [
            [
              113.03615695458842,
              28.23123182434253
            ],
            [
              113.03615695458842,
              28.231115568604665
            ],
            [
              113.03654621274649,
              28.231121381394644
            ],
            [
              113.03654621274649,
              28.231237637125304
            ],
            [
              113.03615695458842,
              28.23123182434253
            ]
          ]
        ],
        "type": "Polygon"
      }
    },
    {
      "type": "Feature",
      "properties": {
        "floors": 6,
        "building_id": 3
      },
      "geometry": {
        "coordinates": [
          [
            [
              113.03615035699232,
              28.230976061552553
            ],
            [
              113.03615035699232,
              28.2308888695525
            ],
            [
              113.03652641995848,
              28.230883056749832
            ],
            [
              113.03651982236255,
              28.23095862315874
            ],
            [
              113.03615035699232,
              28.230976061552553
            ]
          ]
        ],
        "type": "Polygon"
      }
    },
    {
      "type": "Feature",
      "properties": {
        "floors": 6,
        "building_id": 4
      },
      "geometry": {
        "coordinates": [
          [
            [
              113.03665331472956,
              28.230675156991012
            ],
            [
              113.0366453055355,
              28.23058695066807
            ],
            [
              113.0370137284558,
              28.23059400717679
            ],
            [
              113.03699771006762,
              28.230675156991012
            ],
            [
              113.03665331472956,
              28.230675156991012
            ]
          ]
        ],
        "type": "Polygon"
      }
    },
    {
      "type": "Feature",
      "properties": {
        "floors": 6,
        "building_id": 5
      },
      "geometry": {
        "coordinates": [
          [
            [
              113.03496553589343,
              28.230071562408682
            ],
            [
              113.03471878124452,
              28.229759633765326
            ],
            [
              113.03521229054223,
              28.229769086162094
            ],
            [
              113.03527666131987,
              28.230071562408682
            ],
            [
              113.03496553589343,
              28.230071562408682
            ]
          ]
        ],
        "type": "Polygon"
      }
    }
  ]
}