{
    "type": "FeatureCollection",
    "features": [
      {
        "type": "Feature",
        "properties": {},
        "geometry": {
          "coordinates": [
            113.03640630786907,
            28.231199946296314
          ],
          "type": "Point"
        }
      },
      {
        "type": "Feature",
        "properties": {},
        "geometry": {
          "coordinates": [
            113.03636216517958,
            28.230939368625286
          ],
          "type": "Point"
        }
      },
      {
        "type": "Feature",
        "properties": {},
        "geometry": {
          "coordinates": [
            113.03682566842673,
            28.230651565549906
          ],
          "type": "Point"
        }
      },
      {
        "type": "Feature",
        "properties": {},
        "geometry": {
          "coordinates": [
            113.03576181811513,
            28.230460992815708
          ],
          "type": "Point"
        }
      },
      {
        "type": "Feature",
        "properties": {},
        "geometry": {
          "coordinates": [
            113.0363003647467,
            28.230363761697788
          ],
          "type": "Point"
        }
      },
      {
        "type": "Feature",
        "properties": {},
        "geometry": {
          "coordinates": [
            113.03509967061916,
            28.230017618199597
          ],
          "type": "Point"
        }
      },
      {
        "type": "Feature",
        "properties": {},
        "geometry": {
          "coordinates": [
            113.03494516953629,
            28.229792040933177
          ],
          "type": "Point"
        }
      }
    ]
  }