{
"type": "FeatureCollection",
"name": "transformed_buildings",
"crs": { "type": "name", "properties": { "name": "urn:ogc:def:crs:EPSG::3415" } },
"features": [
{ "type": "Feature", "properties": { "floors": 6, "building_id": 0 }, "geometry": { "type": "Polygon", "coordinates": [ [ [ 206.659353375609498, 257.912095956504345 ], [ 217.414880504074972, 237.349412773619406 ], [ 272.562015863950364, 267.138221060857177 ], [ 275.599534444394521, 290.004075030097738 ], [ 229.609383717819583, 292.995598122710362 ], [ 229.631928678660188, 274.705950624891557 ], [ 240.361157201405149, 275.481249871198088 ], [ 206.659353375609498, 257.912095956504345 ] ] ] } },
{ "type": "Feature", "properties": { "floors": 7, "building_id": 1 }, "geometry": { "type": "Polygon", "coordinates": [ [ [ 312.338658460066654, 330.439141976530664 ], [ 329.245606506883632, 293.88078791112639 ], [ 339.964428358827718, 303.038898892933503 ], [ 333.808364461641759, 322.845050826086663 ], [ 359.856868792092428, 331.260092145879753 ], [ 356.770320728537627, 348.021742917480879 ], [ 312.338658460066654, 330.439141976530664 ] ] ] } },
{ "type": "Feature", "properties": { "floors": 7, "building_id": 2 }, "geometry": { "type": "Polygon", "coordinates": [ [ [ 328.480110751697794, 293.117770291864872 ], [ 336.926057556644082, 280.935119647998363 ], [ 392.842109585530125, 308.43900188500993 ], [ 404.366172161709983, 286.353319077054039 ], [ 383.683649026672356, 277.182778279529884 ], [ 376.807447582832538, 259.646616954705678 ], [ 356.862958370824344, 273.33913634554483 ], [ 340.005041865981184, 270.269952725735493 ], [ 353.83311129611684, 244.376681716181338 ], [ 392.155211972130928, 244.424254733021371 ], [ 392.894192205159925, 266.525235540699214 ], [ 408.20974455634132, 277.213259323500097 ], [ 424.298355876933783, 282.567764215171337 ], [ 398.949940906371921, 327.498299158411101 ], [ 328.480110751697794, 293.117770291864872 ] ] ] } },
{ "type": "Feature", "properties": { "floors": 7, "building_id": 3 }, "geometry": { "type": "Polygon", "coordinates": [ [ [ 272.792911281925626, 199.021519513917156 ], [ 279.705033908772748, 187.59894999768585 ], [ 332.559503204887733, 212.05070525011979 ], [ 323.348024775739759, 223.470388134592213 ], [ 272.792911281925626, 199.021519513917156 ] ] ] } },
{ "type": "Feature", "properties": { "floors": 7, "building_id": 4 }, "geometry": { "type": "Polygon", "coordinates": [ [ [ 275.957197190786246, 289.60680435562972 ], [ 275.52679137251107, 275.351471051806584 ], [ 284.039672761166003, 274.916527834022418 ], [ 299.759404109383468, 243.308079174603336 ], [ 314.088269649306312, 249.562298524659127 ], [ 296.120717621059157, 287.404416602337733 ], [ 275.957197190786246, 289.60680435562972 ] ] ] } },
{ "type": "Feature", "properties": { "floors": 7, "building_id": 5 }, "geometry": { "type": "Polygon", "coordinates": [ [ [ 266.433427001757082, 150.890949141350575 ], [ 279.18002133310074, 126.36291735607665 ], [ 333.744700144743547, 159.1554608856095 ], [ 345.731385719613172, 144.29531170881819 ], [ 288.93090418522479, 104.806164898094721 ], [ 298.679972812184133, 84.736894667730667 ], [ 371.162082201102749, 145.814359628828242 ], [ 335.21861301996978, 177.007275678915903 ], [ 266.433427001757082, 150.890949141350575 ] ] ] } },
{ "type": "Feature", "properties": { "floors": 7, "building_id": 6 }, "geometry": { "type": "Polygon", "coordinates": [ [ [ 421.221768024726771, 191.989042715169489 ], [ 432.47438419010723, 165.971832075156271 ], [ 468.359623338619713, 181.635283968993463 ], [ 459.352854392374866, 206.167749719694257 ], [ 447.389277333859354, 202.434099919628352 ], [ 453.389141768042464, 189.797855758690275 ], [ 432.453086642548442, 183.078038188512437 ], [ 429.451771352440119, 190.511788639938459 ], [ 421.221768024726771, 191.989042715169489 ] ] ] } },
{ "type": "Feature", "properties": { "floors": 7, "building_id": 7 }, "geometry": { "type": "Polygon", "coordinates": [ [ [ 459.409413634391967, 160.799140596063808 ], [ 477.41281981515931, 119.915301734465174 ], [ 499.093238007335458, 129.611137103987858 ], [ 483.336617603781633, 168.266484028543346 ], [ 459.409413634391967, 160.799140596063808 ] ] ] } },
{ "type": "Feature", "properties": { "floors": 6, "building_id": 8 }, "geometry": { "type": "Polygon", "coordinates": [ [ [ 432.547536803176627, 107.215598620241508 ], [ 453.538377877732273, 70.054091478115879 ], [ 490.919844199554063, 85.719547513639554 ], [ 484.920841253129765, 97.612105790991336 ], [ 458.007951073464938, 84.934734294423833 ], [ 455.752770799736027, 93.856959867058322 ], [ 481.919486585189588, 105.045884932391346 ], [ 475.91771358117694, 119.169684551539831 ], [ 432.547536803176627, 107.215598620241508 ] ] ] } },
{ "type": "Feature", "properties": { "floors": 7, "building_id": 9 }, "geometry": { "type": "Polygon", "coordinates": [ [ [ 484.565482792095281, 98.016324344789609 ], [ 490.655150445993058, 85.944029471836984 ], [ 504.821646629425231, 92.001672894693911 ], [ 512.941228396899533, 75.905282528256066 ], [ 490.677774129086174, 67.824195696972311 ], [ 497.777376345940866, 57.766462895320728 ], [ 527.127870939846616, 65.856427021790296 ], [ 513.913395083625801, 108.119556481717154 ], [ 484.565482792095281, 98.016324344789609 ] ] ] } },
{ "type": "Feature", "properties": { "floors": 13, "building_id": 10 }, "geometry": { "type": "Polygon", "coordinates": [ [ [ 160.742949731647968, 467.699112387606874 ], [ 160.109693475184031, 446.047330616158433 ], [ 189.800297369598411, 448.380150405457243 ], [ 224.747488119872287, 468.762001184280962 ], [ 219.120145553315524, 483.845143178477883 ], [ 188.455165908264462, 469.045360706280917 ], [ 160.742949731647968, 467.699112387606874 ] ] ] } },
{ "type": "Feature", "properties": { "floors": 7, "building_id": 11 }, "geometry": { "type": "Polygon", "coordinates": [ [ [ 173.304756829689723, 447.703773820423521 ], [ 173.026444598799571, 405.713529756292701 ], [ 135.746615818701684, 404.027514215209521 ], [ 135.436409854912199, 387.952844626503065 ], [ 187.233516420121305, 389.328665239270777 ], [ 191.120005154691171, 448.38177402864676 ], [ 173.304756829689723, 447.703773820423521 ] ] ] } },
{ "type": "Feature", "properties": { "floors": 12, "building_id": 12 }, "geometry": { "type": "Polygon", "coordinates": [ [ [ 247.448471373645589, 520.621066711377352 ], [ 249.781021967530251, 501.925411515985616 ], [ 270.236830753681716, 501.622620210167952 ], [ 314.093826113268733, 520.375382650177926 ], [ 306.816387020691764, 535.784449363825843 ], [ 277.470069596893154, 521.970310841803439 ], [ 247.448471373645589, 520.621066711377352 ] ] ] } },
{ "type": "Feature", "properties": { "floors": 7, "building_id": 13 }, "geometry": { "type": "Polygon", "coordinates": [ [ [ 270.237641124171205, 500.966531919781119 ], [ 287.118201222212519, 457.029349823133089 ], [ 251.511613427021075, 436.318492018035613 ], [ 257.14305125764804, 417.95486041973345 ], [ 313.19134882686194, 449.844598689698614 ], [ 338.928900540515315, 447.252110594301485 ], [ 335.602802311012056, 468.898991522961296 ], [ 306.899194198369514, 468.863448939286172 ], [ 287.383649024297483, 509.188832974410616 ], [ 270.237641124171205, 500.966531919781119 ] ] ] } }
]
}
