{
"type": "FeatureCollection",
"name": "transformed_boundary",
"crs": { "type": "name", "properties": { "name": "urn:ogc:def:crs:EPSG::3415" } },
"features": [
{ "type": "Feature", "properties": { }, "geometry": { "type": "Polygon", "coordinates": [ [ [ 274.82387724716682, 636.611010855296627 ], [ 68.554230530047789, 509.96182586112991 ], [ 0.0, 301.149275577161461 ], [ 1.330201282806229, 166.635351797100157 ], [ 29.350446722412016, 142.317456504213624 ], [ 57.394868236151524, 98.285968345939182 ], [ 118.079639705829322, 67.050308273755945 ], [ 108.801980096846819, 24.132630401989445 ], [ 287.273229903541505, 0.0 ], [ 286.051043554383796, 45.224120306316763 ], [ 404.876125959970523, 154.376290491782129 ], [ 435.228096232807729, 131.221592240268365 ], [ 436.468016078753863, 72.082206515246071 ], [ 466.83030653942842, 40.810054092667997 ], [ 500.659693265741225, 35.054125034250319 ], [ 542.631302277266514, 46.702911492902786 ], [ 274.82387724716682, 636.611010855296627 ] ] ] } }
]
}
