{
  "type": "FeatureCollection",
  "features": [
    {
      "type": "Feature",
      "properties": {},
      "geometry": {
        "coordinates": [
          [
            [
              114.19765613771779,
              22.696424001433712
            ],
            [
              114.19564527650232,
              22.695281563055673
            ],
            [
              114.19497498943105,
              22.693394946713767
            ],
            [
              114.1949863502291,
              22.692179113527942
            ],
            [
              114.19525900937714,
              22.691959004643095
            ],
            [
              114.19553166852523,
              22.6915607114759
            ],
            [
              114.19612243001188,
              22.691277712995586
            ],
            [
              114.1960315436292,
              22.690889899313603
            ],
            [
              114.19776974569658,
              22.69066978835791
            ],
            [
              114.19775838489858,
              22.691078565566556
            ],
            [
              114.19891718627747,
              22.692063818441767
            ],
            [
              114.19921256701991,
              22.691854190763493
            ],
            [
              114.19922392781791,
              22.69131963873329
            ],
            [
              114.19951930856212,
              22.691036639755097
            ],
            [
              114.19984877169873,
              22.690984232472545
            ],
            [
              114.20025776041996,
              22.691089047016817
            ],
            [
              114.19765613771779,
              22.696424001433712
            ]
          ]
        ],
        "type": "Polygon"
      }
    }
  ]
}