{
    "type": "FeatureCollection",
    "features": [
      {
        "type": "Feature",
        "properties": {},
        "geometry": {
          "coordinates": [
            [
              [
                113.03483743543882,
                28.233155838579094
              ],
              [
                113.03417767585262,
                28.231871228809652
              ],
              [
                113.03312206051226,
                28.230697047078152
              ],
              [
                113.03555657338904,
                28.2286567302708
              ],
              [
                113.03707402043955,
                28.22977861869856
              ],
              [
                113.03719937476154,
                28.23263850890264
              ],
              [
                113.03609757625122,
                28.23294076924242
              ],
              [
                113.03483743543882,
                28.233155838579094
              ]
            ]
          ],
          "type": "Polygon"
        }
      }
    ]
  }