{
    "type": "FeatureCollection",
    "features": [
      {
        "type": "Feature",
        "properties": {},
        "geometry": {
          "coordinates": [
            [
              [
                114.19608550023975,
                22.694737857827135
              ],
              [
                114.19575559056625,
                22.693819417199634
              ],
              [
                114.19598710612632,
                22.69383009677742
              ],
              [
                114.19630544002331,
                22.694716498812284
              ],
              [
                114.19608550023975,
                22.694737857827135
              ]
            ]
          ],
          "type": "Polygon"
        }
      },
      {
        "type": "Feature",
        "properties": {},
        "geometry": {
          "coordinates": [
            [
              [
                114.19787165495791,
                22.694269085958936
              ],
              [
                114.19764592728512,
                22.69439190064746
              ],
              [
                114.19714238094116,
                22.693980737996583
              ],
              [
                114.19721762349815,
                22.693713748601127
              ],
              [
                114.19787165495791,
                22.694269085958936
              ]
            ]
          ],
          "type": "Polygon"
        }
      },
      {
        "type": "Feature",
        "properties": {},
        "geometry": {
          "coordinates": [
            [
              [
                114.19821892829879,
                22.69421034845992
              ],
              [
                114.19862986841844,
                22.693735107772284
              ],
              [
                114.19883823242373,
                22.693825884210185
              ],
              [
                114.1985314743049,
                22.694434618774224
              ],
              [
                114.19821892829879,
                22.69421034845992
              ]
            ]
          ],
          "type": "Polygon"
        }
      },
      {
        "type": "Feature",
        "properties": {},
        "geometry": {
          "coordinates": [
            [
              [
                114.19672751801494,
                22.692592204574353
              ],
              [
                114.19707479135587,
                22.691930063209554
              ],
              [
                114.19746836780985,
                22.692111618418622
              ],
              [
                114.19699376090978,
                22.69271502076603
              ],
              [
                114.19672751801494,
                22.692592204574353
              ]
            ]
          ],
          "type": "Polygon"
        }
      },
      {
        "type": "Feature",
        "properties": {},
        "geometry": {
          "coordinates": [
            [
              [
                114.19857418701537,
                22.69269121699749
              ],
              [
                114.19875939946411,
                22.69240286571447
              ],
              [
                114.19948867347904,
                22.69268053733093
              ],
              [
                114.19932082469768,
                22.692995587137332
              ],
              [
                114.19857418701537,
                22.69269121699749
              ]
            ]
          ],
          "type": "Polygon"
        },
        "id": 4
      },
      {
        "type": "Feature",
        "properties": {},
        "geometry": {
          "coordinates": [
            [
              [
                114.1973134394915,
                22.691700467142212
              ],
              [
                114.19778568190452,
                22.691145954010693
              ],
              [
                114.19795204002747,
                22.691294484533827
              ],
              [
                114.197517362351,
                22.691839095075068
              ],
              [
                114.1973134394915,
                22.691700467142212
              ]
            ]
          ],
          "type": "Polygon"
        }
      },
      {
        "type": "Feature",
        "properties": {},
        "geometry": {
          "coordinates": [
            [
              [
                114.19783392569389,
                22.693373836698285
              ],
              [
                114.19815538906909,
                22.692809121275943
              ],
              [
                114.19822584679531,
                22.692849748362633
              ],
              [
                114.19791759424402,
                22.69341446361757
              ],
              [
                114.19783392569389,
                22.693373836698285
              ]
            ]
          ],
          "type": "Polygon"
        },
        "id": 6
      },
      {
        "type": "Feature",
        "properties": {},
        "geometry": {
          "coordinates": [
            [
              [
                114.19838168567014,
                22.692343601611213
              ],
              [
                114.1987339743012,
                22.691892638610327
              ],
              [
                114.19883525728318,
                22.692034834311187
              ],
              [
                114.19849617947608,
                22.69243298148919
              ],
              [
                114.19838168567014,
                22.692343601611213
              ]
            ]
          ],
          "type": "Polygon"
        }
      },
      {
        "type": "Feature",
        "properties": {},
        "geometry": {
          "coordinates": [
            [
              [
                114.1979768065363,
                22.69145171076066
              ],
              [
                114.19812517097017,
                22.69130912695603
              ],
              [
                114.19875571980879,
                22.69178250461509
              ],
              [
                114.19860117352533,
                22.691902274606733
              ],
              [
                114.1979768065363,
                22.69145171076066
              ]
            ]
          ],
          "type": "Polygon"
        }
      },
      {
        "type": "Feature",
        "properties": {},
        "geometry": {
          "coordinates": [
            [
              [
                114.19619636455832,
                22.69240143762893
              ],
              [
                114.19682511386014,
                22.691592980980516
              ],
              [
                114.19711225921003,
                22.6917391429878
              ],
              [
                114.19645875599974,
                22.69255673384042
              ],
              [
                114.19619636455832,
                22.69240143762893
              ]
            ]
          ],
          "type": "Polygon"
        }
      },
      {
        "type": "Feature",
        "properties": {},
        "geometry": {
          "coordinates": [
            [
              [
                114.19646583543664,
                22.693202989028066
              ],
              [
                114.19610116313947,
                22.693058800048334
              ],
              [
                114.19629466272482,
                22.69274982315187
              ],
              [
                114.19671887335721,
                22.69273609082893
              ],
              [
                114.19646583543664,
                22.693202989028066
              ]
            ]
          ],
          "type": "Polygon"
        }
      },
      {
        "type": "Feature",
        "properties": {},
        "geometry": {
          "coordinates": [
            [
              [
                114.19935448095578,
                22.691167796782153
              ],
              [
                114.19986621435692,
                22.69091862851785
              ],
              [
                114.19964893030345,
                22.691269443748354
              ],
              [
                114.19935448095578,
                22.691167796782153
              ]
            ]
          ],
          "type": "Polygon"
        }
      },
      {
        "type": "Feature",
        "properties": {},
        "geometry": {
          "coordinates": [
            [
              [
                114.19795493605329,
                22.693435729531032
              ],
              [
                114.19801287698135,
                22.693373721399226
              ],
              [
                114.19830721689311,
                22.69281564694934
              ],
              [
                114.19842309874775,
                22.69286910245458
              ],
              [
                114.19806386499721,
                22.69348063195406
              ],
              [
                114.19795493605329,
                22.693435729531032
              ]
            ]
          ],
          "type": "Polygon"
        }
      },
      {
        "type": "Feature",
        "properties": {},
        "geometry": {
          "coordinates": [
            [
              [
                114.19759975574658,
                22.69224573525851
              ],
              [
                114.19768090155395,
                22.692104814084757
              ],
              [
                114.19836348099193,
                22.692373444948075
              ],
              [
                114.19825369548721,
                22.692518769621373
              ],
              [
                114.19759975574658,
                22.69224573525851
              ]
            ]
          ],
          "type": "Polygon"
        }
      },
      {
        "type": "Feature",
        "properties": {},
        "geometry": {
          "coordinates": [
            [
              [
                114.19911252831372,
                22.69200386001816
              ],
              [
                114.19927250949502,
                22.691682618355202
              ],
              [
                114.19944817510526,
                22.69176944050048
              ],
              [
                114.1993070152397,
                22.692084893832003
              ],
              [
                114.19911252831372,
                22.69200386001816
              ]
            ]
          ],
          "type": "Polygon"
        }
      },
      {
        "type": "Feature",
        "properties": {},
        "geometry": {
          "coordinates": [
            [
              [
                114.19727511990277,
                22.69551293852966
              ],
              [
                114.19767403992046,
                22.695452605571802
              ],
              [
                114.19803372190279,
                22.695603437917597
              ],
              [
                114.19788330943805,
                22.695778403232225
              ],
              [
                114.19727511990277,
                22.69551293852966
              ]
            ]
          ],
          "type": "Polygon"
        }
      },
      {
        "type": "Feature",
        "properties": {},
        "geometry": {
          "coordinates": [
            [
              [
                114.19794932318831,
                22.695253463403205
              ],
              [
                114.19809744300397,
                22.69494762531562
              ],
              [
                114.19835136269097,
                22.694967146915474
              ],
              [
                114.19816797625151,
                22.695334803204773
              ],
              [
                114.19794932318831,
                22.695253463403205
              ]
            ]
          ],
          "type": "Polygon"
        }
      }
    ]
  }